ONEWEB-0363             
1 49289U 21090L   25269.68251688  .00000043  00000+0  73058-4 0  9995
2 49289  87.9250 326.9807 0001969  86.8851 273.2508 13.20770832195523
ONEWEB-0364             
1 49290U 21090M   25269.64464120  .00000024  00000+0  28257-4 0  9990
2 49290  87.9247 327.0144 0001874  92.9774 267.1574 13.20770715196654
ONEWEB-0365             
1 49291U 21090N   25269.79915953 -.00000016  00000+0 -71125-4 0  9997
2 49291  87.9287 357.3293 0001710 102.6777 257.4547 13.19726296191684
ONEWEB-0366             
1 49292U 21090P   25269.68775660 -.00000196  00000+0 -56343-3 0  9998
2 49292  87.9071 342.1965 0001841  97.6210 262.5129 13.14504271192949
ONEWEB-0367             
1 49293U 21090Q   25269.68093599 -.00000037  00000+0 -12300-3 0  9992
2 49293  87.9254 326.9770 0001859 103.5919 256.5422 13.20769691195048
ONEWEB-0368             
1 49294U 21090R   25269.72986759  .00000050  00000+0  91026-4 0  9993
2 49294  87.9249 327.0027 0001300  73.2263 286.9013 13.20769752196206
ONEWEB-0369             
1 49295U 21090S   25269.79443039 -.00000084  00000+0 -24234-3 0  9995
2 49295  87.9286 357.3621 0001742 101.6872 258.4456 13.19725286191679
ONEWEB-0370             
1 49296U 21090T   25269.69041135 -.00000049  00000+0 -15205-3 0  9995
2 49296  87.9252 326.9834 0002132 104.0892 256.0479 13.20770351195087
